
    {
        "ARG_OF_PERICENTER": 93.8876,
        "BSTAR": 6.0776028e-05,
        "CLASSIFICATION_TYPE": "U",
        "ECCENTRICITY": 0.00013481,
        "ELEMENT_SET_NO": 999,
        "EPHEMERIS_TYPE": 0,
        "EPOCH": "2026-06-19T13:34:22.222272",
        "INCLINATION": 98.2302,
        "MEAN_ANOMALY": 266.2477,
        "MEAN_MOTION": 14.5709586,
        "MEAN_MOTION_DDOT": 0,
        "MEAN_MOTION_DOT": 2.28e-06,
        "NORAD_CAT_ID": 39084,
        "OBJECT_ID": "2013-008A",
        "OBJECT_NAME": "LANDSAT 8",
        "RA_OF_ASC_NODE": 240.6726,
        "REV_AT_EPOCH": 69824
    },
    {
        "ARG_OF_PERICENTER": 291.8508,
        "BSTAR": 3.4783739e-05,
        "CLASSIFICATION_TYPE": "U",
        "ECCENTRICITY": 6.359e-05,
        "ELEMENT_SET_NO": 999,
        "EPHEMERIS_TYPE": 0,
        "EPOCH": "2026-06-19T13:18:56.163744",
        "INCLINATION": 98.5557,
        "MEAN_ANOMALY": 68.2608,
        "MEAN_MOTION": 14.32856404,
        "MEAN_MOTION_DDOT": 0,
        "MEAN_MOTION_DOT": 5.1e-07,
        "NORAD_CAT_ID": 39086,
        "OBJECT_ID": "2013-009A",
        "OBJECT_NAME": "SARAL",
        "RA_OF_ASC_NODE": 357.092,
        "REV_AT_EPOCH": 69594
    },
    {
        "ARG_OF_PERICENTER": 257.7001,
        "BSTAR": 0.00015179493,
        "CLASSIFICATION_TYPE": "U",
        "ECCENTRICITY": 0.00156711,
        "ELEMENT_SET_NO": 999,
        "EPHEMERIS_TYPE": 0,
        "EPOCH": "2026-06-19T15:18:56.805408",
        "INCLINATION": 97.9091,
        "MEAN_ANOMALY": 102.2454,
        "MEAN_MOTION": 14.76540877,
        "MEAN_MOTION_DDOT": 0,
        "MEAN_MOTION_DOT": 1.009e-05,
        "NORAD_CAT_ID": 39150,
        "OBJECT_ID": "2013-018A",
        "OBJECT_NAME": "GAOFEN-1",
        "RA_OF_ASC_NODE": 242.6567,
        "REV_AT_EPOCH": 70860
    },
    {
        "ARG_OF_PERICENTER": 88.3317,
        "BSTAR": 0.00012528711,
        "CLASSIFICATION_TYPE": "U",
        "ECCENTRICITY": 0.00017178,
        "ELEMENT_SET_NO": 999,
        "EPHEMERIS_TYPE": 0,
        "EPOCH": "2026-06-19T14:47:34.800000",
        "INCLINATION": 97.9073,
        "MEAN_ANOMALY": 271.8084,
        "MEAN_MOTION": 14.64859871,
        "MEAN_MOTION_DDOT": 0,
        "MEAN_MOTION_DOT": 6.24e-06,
        "NORAD_CAT_ID": 39160,
        "OBJECT_ID": "2013-021B",
        "OBJECT_NAME": "VNREDSAT 1",
        "RA_OF_ASC_NODE": 223.9398,
        "REV_AT_EPOCH": 70064
    },
    {
        "ARG_OF_PERICENTER": 114.8996,
        "BSTAR": 2.4115739e-05,
        "CLASSIFICATION_TYPE": "U",
        "ECCENTRICITY": 0.00054278,
        "ELEMENT_SET_NO": 999,
        "EPHEMERIS_TYPE": 0,
        "EPOCH": "2026-06-19T15:02:48.073920",
        "INCLINATION": 97.6201,
        "MEAN_ANOMALY": 245.2794,
        "MEAN_MOTION": 15.04494438,
        "MEAN_MOTION_DDOT": 0,
        "MEAN_MOTION_DOT": 2.77e-06,
        "NORAD_CAT_ID": 39227,
        "OBJECT_ID": "2013-042A",
        "OBJECT_NAME": "ARIRANG-5 (KOMPSAT-5)",
        "RA_OF_ASC_NODE": 357.2929,
        "REV_AT_EPOCH": 70422
    },
    {
        "ARG_OF_PERICENTER": 309.1936,
        "BSTAR": 0.00012158831,
        "CLASSIFICATION_TYPE": "U",
        "ECCENTRICITY": 0.00199538,
        "ELEMENT_SET_NO": 999,
        "EPHEMERIS_TYPE": 0,
        "EPOCH": "2026-06-19T10:33:22.115520",
        "INCLINATION": 97.3811,
        "MEAN_ANOMALY": 50.7523,
        "MEAN_MOTION": 15.12985118,
        "MEAN_MOTION_DDOT": 0,
        "MEAN_MOTION_DOT": 2.091e-05,
        "NORAD_CAT_ID": 39418,
        "OBJECT_ID": "2013-066C",
        "OBJECT_NAME": "SKYSAT-A",
        "RA_OF_ASC_NODE": 219.7655,
        "REV_AT_EPOCH": 68882
    },
    {
        "ARG_OF_PERICENTER": 32.9747,
        "BSTAR": 0.00018877433,
        "CLASSIFICATION_TYPE": "U",
        "ECCENTRICITY": 0.00119945,
        "ELEMENT_SET_NO": 999,
        "EPHEMERIS_TYPE": 0,
        "EPOCH": "2026-06-19T14:07:37.672608",
        "INCLINATION": 97.4562,
        "MEAN_ANOMALY": 327.2228,
        "MEAN_MOTION": 15.10194524,
        "MEAN_MOTION_DDOT": 0,
        "MEAN_MOTION_DOT": 3.025e-05,
        "NORAD_CAT_ID": 39419,
        "OBJECT_ID": "2013-066D",
        "OBJECT_NAME": "DUBAISAT-2",
        "RA_OF_ASC_NODE": 160.6703,
        "REV_AT_EPOCH": 68675
    },
    {
        "ARG_OF_PERICENTER": 252.425,
        "BSTAR": 0.00020546438,
        "CLASSIFICATION_TYPE": "U",
        "ECCENTRICITY": 0.00117433,
        "ELEMENT_SET_NO": 999,
        "EPHEMERIS_TYPE": 0,
        "EPOCH": "2026-06-19T12:58:03.492480",
        "INCLINATION": 64.9724,
        "MEAN_ANOMALY": 107.5608,
        "MEAN_MOTION": 15.44614446,
        "MEAN_MOTION_DDOT": 0,
        "MEAN_MOTION_DOT": 9.393e-05,
        "NORAD_CAT_ID": 39574,
        "OBJECT_ID": "2014-009C",
        "OBJECT_NAME": "GPM-CORE",
        "RA_OF_ASC_NODE": 300.2458,
        "REV_AT_EPOCH": 69817
    },
    {
        "ARG_OF_PERICENTER": 81.0587,
        "BSTAR": 4.2659082e-05,
        "CLASSIFICATION_TYPE": "U",
        "ECCENTRICITY": 0.00014056,
        "ELEMENT_SET_NO": 999,
        "EPHEMERIS_TYPE": 0,
        "EPOCH": "2026-06-19T13:28:57.723744",
        "INCLINATION": 98.1776,
        "MEAN_ANOMALY": 279.0772,
        "MEAN_MOTION": 14.59199822,
        "MEAN_MOTION_DDOT": 0,
        "MEAN_MOTION_DOT": 1.55e-06,
        "NORAD_CAT_ID": 39634,
        "OBJECT_ID": "2014-016A",
        "OBJECT_NAME": "SENTINEL-1A",
        "RA_OF_ASC_NODE": 178.0602,
        "REV_AT_EPOCH": 65036
    },
    {
        "ARG_OF_PERICENTER": 76.0794,
        "BSTAR": 0.00012955907,
        "CLASSIFICATION_TYPE": "U",
        "ECCENTRICITY": 0.00013253,
        "ELEMENT_SET_NO": 999,
        "EPHEMERIS_TYPE": 0,
        "EPOCH": "2026-06-19T14:08:02.986080",
        "INCLINATION": 98.3203,
        "MEAN_ANOMALY": 284.0543,
        "MEAN_MOTION": 14.4208186,
        "MEAN_MOTION_DDOT": 0,
        "MEAN_MOTION_DOT": 3.83e-06,
        "NORAD_CAT_ID": 39731,
        "OBJECT_ID": "2014-024A",
        "OBJECT_NAME": "KAZEOSAT 1",
        "RA_OF_ASC_NODE": 242.9769,
        "REV_AT_EPOCH": 63890
    },
    {
        "ARG_OF_PERICENTER": 91.9201,
        "BSTAR": 0.00021271453,
        "CLASSIFICATION_TYPE": "U",
        "ECCENTRICITY": 0.00016928,
        "ELEMENT_SET_NO": 999,
        "EPHEMERIS_TYPE": 0,
        "EPOCH": "2026-06-19T13:46:29.362944",
        "INCLINATION": 97.9224,
        "MEAN_ANOMALY": 268.2204,
        "MEAN_MOTION": 14.79476685,
        "MEAN_MOTION_DDOT": 0,
        "MEAN_MOTION_DOT": 1.538e-05,
        "NORAD_CAT_ID": 39766,
        "OBJECT_ID": "2014-029A",
        "OBJECT_NAME": "ALOS-2",
        "RA_OF_ASC_NODE": 267.7035,
        "REV_AT_EPOCH": 65193
    },
    {
        "ARG_OF_PERICENTER": 320.9551,
        "BSTAR": 0.00011598368,
        "CLASSIFICATION_TYPE": "U",
        "ECCENTRICITY": 0.00076063,
        "ELEMENT_SET_NO": 999,
        "EPHEMERIS_TYPE": 0,
        "EPOCH": "2026-06-19T14:06:12.535776",
        "INCLINATION": 97.5399,
        "MEAN_ANOMALY": 39.1115,
        "MEAN_MOTION": 14.85474406,
        "MEAN_MOTION_DDOT": 0,
        "MEAN_MOTION_DOT": 9.51e-06,
        "NORAD_CAT_ID": 40010,
        "OBJECT_ID": "2014-033A",
        "OBJECT_NAME": "KAZEOSAT 2",
        "RA_OF_ASC_NODE": 10.0719,
        "REV_AT_EPOCH": 64931
    },
    {
        "ARG_OF_PERICENTER": 299.818,
        "BSTAR": 8.7656973e-05,
        "CLASSIFICATION_TYPE": "U",
        "ECCENTRICITY": 0.00223671,
        "ELEMENT_SET_NO": 999,
        "EPHEMERIS_TYPE": 0,
        "EPOCH": "2026-06-19T14:08:26.067840",
        "INCLINATION": 97.5448,
        "MEAN_ANOMALY": 60.0814,
        "MEAN_MOTION": 14.88130526,
        "MEAN_MOTION_DDOT": 0,
        "MEAN_MOTION_DOT": 7.58e-06,
        "NORAD_CAT_ID": 40011,
        "OBJECT_ID": "2014-033B",
        "OBJECT_NAME": "HODOYOSHI-4",
        "RA_OF_ASC_NODE": 355.2947,
        "REV_AT_EPOCH": 64916
    }